QIANFAN-73              
1 63159U 25046A   25354.90059865  .00000105  00000+0  14332-3 0  9993
2 63159  88.9768 319.1778 0016856  98.0678 262.2387 13.50978934 48519
QIANFAN-74              
1 63160U 25046B   25354.88398344  .00000083  00000+0  10995-3 0  9996
2 63160  88.9769 319.0682 0002024  75.1589 284.9786 13.50975673 48571
QIANFAN-75              
1 63161U 25046C   25354.87126958  .00000129  00000+0  18020-3 0  9994
2 63161  88.9770 319.3033 0017954 100.8633 259.4540 13.50980912 48444
QIANFAN-76              
1 63162U 25046D   25354.86791814  .00000147  00000+0  20809-3 0  9991
2 63162  88.9768 319.2843 0015511 100.9872 259.3025 13.50981397 48459
QIANFAN-77              
1 63163U 25046E   25354.92812658  .00000278  00000+0  19256-3 0  9998
2 63163  88.9771 317.2179 0016892  58.5210 301.7615 13.96093704 49590
QIANFAN-78              
1 63164U 25046F   25354.90880079  .00000108  00000+0  14868-3 0  9995
2 63164  88.9768 319.1439 0016834 103.1382 257.1649 13.50979271 48536
QIANFAN-79              
1 63165U 25046G   25354.93745233  .00000122  00000+0  17016-3 0  9995
2 63165  88.9772 319.2488 0016561 101.4831 258.8181 13.50980964 48488
QIANFAN-80              
1 63166U 25046H   25354.87991862  .00000118  00000+0  16374-3 0  9991
2 63166  88.9770 318.9614 0015464 105.1990 255.0872 13.50978885 48634
